{
  "type": "FeatureCollection",
  "features": [
    {
      "type": "Feature",
      "properties": {
        "norad_id": 46993,
        "name": "FENGYUN 1C DEB",
        "group": "fengyun-1c-debris",
        "lat": 66.54781918556714,
        "lon": -52.227160690532266,
        "alt_km": 1189.6691629919342,
        "timestamp": "2025-12-14T18:52:55.794046+00:00",
        "meta_object_name": "FENGYUN 1C DEB",
        "meta_object_id": "1999-025EZT",
        "meta_epoch": "2025-12-09T13:52:54.599808",
        "meta_mean_motion": 13.69143946,
        "meta_eccentricity": 0.0262449,
        "meta_inclination": 98.7232,
        "meta_ra_of_asc_node": 102.3256,
        "meta_arg_of_pericenter": 307.8097,
        "meta_mean_anomaly": 66.0897,
        "meta_ephemeris_type": 0,
        "meta_classification_type": "U",
        "meta_norad_cat_id": 46993,
        "meta_element_set_no": 999,
        "meta_rev_at_epoch": 60214,
        "meta_bstar": 0.00067098,
        "meta_mean_motion_dot": 6.99e-06,
        "meta_mean_motion_ddot": 0,
        "tle_line1": "1 46993U 99025EZT 25343.57840972  .00000699  00000+0  67098-3 0  9991",
        "tle_line2": "2 46993  98.7232 102.3256 0262449 307.8097  66.0897 13.69143946602149"
      },
      "geometry": {
        "type": "Point",
        "coordinates": [
          -52.227160690532266,
          66.54781918556714
        ]
      }
    },
    {
      "type": "Feature",
      "properties": {
        "norad_id": 46995,
        "name": "FENGYUN 1C DEB",
        "group": "fengyun-1c-debris",
        "lat": -50.784839312381806,
        "lon": -120.05439719590716,
        "alt_km": 1013.4964030325045,
        "timestamp": "2025-12-14T18:52:55.794056+00:00",
        "meta_object_name": "FENGYUN 1C DEB",
        "meta_object_id": "1999-025EZV",
        "meta_epoch": "2025-12-11T04:54:47.403648",
        "meta_mean_motion": 13.86328831,
        "meta_eccentricity": 0.01903824,
        "meta_inclination": 98.5959,
        "meta_ra_of_asc_node": 67.3353,
        "meta_arg_of_pericenter": 122.4344,
        "meta_mean_anomaly": 239.5386,
        "meta_ephemeris_type": 0,
        "meta_classification_type": "U",
        "meta_norad_cat_id": 46995,
        "meta_element_set_no": 999,
        "meta_rev_at_epoch": 60447,
        "meta_bstar": 0.0035321637,
        "meta_mean_motion_dot": 4.676e-05,
        "meta_mean_motion_ddot": 0,
        "tle_line1": "1 46995U 99025EZV 25345.20471532  .00004676  00000+0  35322-2 0  9990",
        "tle_line2": "2 46995  98.5959  67.3353 0190382 122.4344 239.5386 13.86328831604470"
      },
      "geometry": {
        "type": "Point",
        "coordinates": [
          -120.05439719590716,
          -50.784839312381806
        ]
      }
    },
    {
      "type": "Feature",
      "properties": {
        "norad_id": 46997,
        "name": "FENGYUN 1C DEB",
        "group": "fengyun-1c-debris",
        "lat": 40.80797721164989,
        "lon": -143.44188676001355,
        "alt_km": 812.4734156294189,
        "timestamp": "2025-12-14T18:52:55.794066+00:00",
        "meta_object_name": "FENGYUN 1C DEB",
        "meta_object_id": "1999-025EZX",
        "meta_epoch": "2025-12-13T21:12:59.031648",
        "meta_mean_motion": 14.28007116,
        "meta_eccentricity": 0.00246889,
        "meta_inclination": 98.559,
        "meta_ra_of_asc_node": 28.2021,
        "meta_arg_of_pericenter": 332.7257,
        "meta_mean_anomaly": 207.5728,
        "meta_ephemeris_type": 0,
        "meta_classification_type": "U",
        "meta_norad_cat_id": 46997,
        "meta_element_set_no": 999,
        "meta_rev_at_epoch": 62467,
        "meta_bstar": 0.0013494056,
        "meta_mean_motion_dot": 3.317e-05,
        "meta_mean_motion_ddot": 0,
        "tle_line1": "1 46997U 99025EZX 25347.88401657  .00003317  00000+0  13494-2 0  9996",
        "tle_line2": "2 46997  98.5590  28.2021 0024688 332.7257 207.5728 14.28007116624671"
      },
      "geometry": {
        "type": "Point",
        "coordinates": [
          -143.44188676001355,
          40.80797721164989
        ]
      }
    },
    {
      "type": "Feature",
      "properties": {
        "norad_id": 47001,
        "name": "FENGYUN 1C DEB",
        "group": "fengyun-1c-debris",
        "lat": -57.88117804278465,
        "lon": -148.14816057006018,
        "alt_km": 806.0865557494117,
        "timestamp": "2025-12-14T18:52:55.794077+00:00",
        "meta_object_name": "FENGYUN 1C DEB",
        "meta_object_id": "1999-025FAB",
        "meta_epoch": "2025-12-11T09:38:44.993760",
        "meta_mean_motion": 14.38447504,
        "meta_eccentricity": 0.00517509,
        "meta_inclination": 99.3059,
        "meta_ra_of_asc_node": 43.327,
        "meta_arg_of_pericenter": 53.4602,
        "meta_mean_anomaly": 307.1332,
        "meta_ephemeris_type": 0,
        "meta_classification_type": "U",
        "meta_norad_cat_id": 47001,
        "meta_element_set_no": 999,
        "meta_rev_at_epoch": 73895,
        "meta_bstar": 0.0027920428,
        "meta_mean_motion_dot": 8.616e-05,
        "meta_mean_motion_ddot": 0,
        "tle_line1": "1 47001U 99025FAB 25345.40190965  .00008616  00000+0  27920-2 0  9992",
        "tle_line2": "2 47001  99.3059  43.3270 0051750  53.4602 307.1332 14.38447504738957"
      },
      "geometry": {
        "type": "Point",
        "coordinates": [
          -148.14816057006018,
          -57.88117804278465
        ]
      }
    },
    {
      "type": "Feature",
      "properties": {
        "norad_id": 47005,
        "name": "FENGYUN 1C DEB",
        "group": "fengyun-1c-debris",
        "lat": 64.96894480845435,
        "lon": -80.89400962442473,
        "alt_km": 874.2570343411971,
        "timestamp": "2025-12-14T18:52:55.794087+00:00",
        "meta_object_name": "FENGYUN 1C DEB",
        "meta_object_id": "1999-025FAF",
        "meta_epoch": "2025-12-03T11:49:12.815616",
        "meta_mean_motion": 14.10913141,
        "meta_eccentricity": 0.00635736,
        "meta_inclination": 99.6019,
        "meta_ra_of_asc_node": 65.7889,
        "meta_arg_of_pericenter": 267.3996,
        "meta_mean_anomaly": 108.1197,
        "meta_ephemeris_type": 0,
        "meta_classification_type": "U",
        "meta_norad_cat_id": 47005,
        "meta_element_set_no": 999,
        "meta_rev_at_epoch": 82637,
        "meta_bstar": 0.0032335345,
        "meta_mean_motion_dot": 5.865e-05,
        "meta_mean_motion_ddot": 0,
        "tle_line1": "1 47005U 99025FAF 25337.49250944  .00005865  00000+0  32335-2 0  9999",
        "tle_line2": "2 47005  99.6019  65.7889 0063573 267.3996 108.1197 14.10913141826379"
      },
      "geometry": {
        "type": "Point",
        "coordinates": [
          -80.89400962442473,
          64.96894480845435
        ]
      }
    },
    {
      "type": "Feature",
      "properties": {
        "norad_id": 47007,
        "name": "FENGYUN 1C DEB",
        "group": "fengyun-1c-debris",
        "lat": 33.231188653677854,
        "lon": 35.97633139117986,
        "alt_km": 922.2169170587467,
        "timestamp": "2025-12-14T18:52:55.794116+00:00",
        "meta_object_name": "FENGYUN 1C DEB",
        "meta_object_id": "1999-025FAH",
        "meta_epoch": "2025-12-12T19:48:14.767488",
        "meta_mean_motion": 13.97221277,
        "meta_eccentricity": 0.02364818,
        "meta_inclination": 98.2071,
        "meta_ra_of_asc_node": 208.7965,
        "meta_arg_of_pericenter": 53.4712,
        "meta_mean_anomaly": 308.7978,
        "meta_ephemeris_type": 0,
        "meta_classification_type": "U",
        "meta_norad_cat_id": 47007,
        "meta_element_set_no": 999,
        "meta_rev_at_epoch": 78850,
        "meta_bstar": 0.0035002568,
        "meta_mean_motion_dot": 6.179e-05,
        "meta_mean_motion_ddot": 0,
        "tle_line1": "1 47007U 99025FAH 25346.82517092  .00006179  00000+0  35003-2 0  9992",
        "tle_line2": "2 47007  98.2071 208.7965 0236481  53.4712 308.7978 13.97221277788501"
      },
      "geometry": {
        "type": "Point",
        "coordinates": [
          35.97633139117986,
          33.231188653677854
        ]
      }
    },
    {
      "type": "Feature",
      "properties": {
        "norad_id": 47009,
        "name": "FENGYUN 1C DEB",
        "group": "fengyun-1c-debris",
        "lat": 12.851753449414618,
        "lon": -29.699171667706207,
        "alt_km": 1240.0439038441764,
        "timestamp": "2025-12-14T18:52:55.794128+00:00",
        "meta_object_name": "FENGYUN 1C DEB",
        "meta_object_id": "1999-025FAK",
        "meta_epoch": "2025-12-02T05:09:31.123584",
        "meta_mean_motion": 13.37303446,
        "meta_eccentricity": 0.0352227,
        "meta_inclination": 98.9376,
        "meta_ra_of_asc_node": 321.2954,
        "meta_arg_of_pericenter": 285.6992,
        "meta_mean_anomaly": 70.555,
        "meta_ephemeris_type": 0,
        "meta_classification_type": "U",
        "meta_norad_cat_id": 47009,
        "meta_element_set_no": 999,
        "meta_rev_at_epoch": 58668,
        "meta_bstar": 0.00057132,
        "meta_mean_motion_dot": 3.87e-06,
        "meta_mean_motion_ddot": 0,
        "tle_line1": "1 47009U 99025FAK 25336.21494356  .00000387  00000+0  57132-3 0  9996",
        "tle_line2": "2 47009  98.9376 321.2954 0352227 285.6992  70.5550 13.37303446586681"
      },
      "geometry": {
        "type": "Point",
        "coordinates": [
          -29.699171667706207,
          12.851753449414618
        ]
      }
    }
  ]
}